STARLINK-32389          
1 61549U 24184T   25262.21825243  .00000615  00000+0  32893-4 0  9998
2 61549  53.1601  90.4323 0001014  92.2489 267.8628 15.30195478 52250
STARLINK-32476          
1 61550U 24184U   25262.23091529  .00001082  00000+0  48678-4 0  9991
2 61550  53.1590  90.5067 0001172  90.8712 269.2423 15.30189425 52257
STARLINK-32366          
1 61551U 24184V   25261.84852432  .00000174  00000+0  18012-4 0  9996
2 61551  53.1604  92.3873 0001080  97.5621 262.5503 15.30189802 52197
STARLINK-11356 [DTC]    
1 61574U 24187A   25261.74203715  .00006143  00000+0  55529-4 0  9993
2 61574  53.1584  63.9201 0001347 124.6118 235.5027 15.69708556 53778
STARLINK-11376 [DTC]    
1 61575U 24187B   25261.73713194  .00005535  00000+0  50512-4 0  9991
2 61575  53.1566  63.8883 0001036  91.6944 268.4192 15.69708768 53693
STARLINK-11372 [DTC]    
1 61576U 24187C   25261.73221700  .00002098  00000+0  22178-4 0  9997
2 61576  53.1591  63.8493 0001153 129.5673 230.5447 15.69702574 53747
STARLINK-11375 [DTC]    
1 61577U 24187D   25262.17299406  .00001659  00000+0  18546-4 0  9991
2 61577  53.1570  61.6282 0000745  92.1342 267.9761 15.69703687 53818
STARLINK-11285 [DTC]    
1 61578U 24187E   25261.72241102  .00003702  00000+0  35401-4 0  9992
2 61578  53.1578  63.7887 0000899  74.6510 285.4607 15.69706820 53695
STARLINK-11275 [DTC]    
1 61579U 24187F   25262.16318743  .00000660  00000+0  10297-4 0  9994
2 61579  53.1591  61.5599 0000591  73.8657 286.2426 15.69710617 53764
STARLINK-11342 [DTC]    
1 61580U 24187G   25262.15828163  .00002077  00000+0  21993-4 0  9996
2 61580  53.1593  61.5271 0000970  91.0204 269.0925 15.69710107 53864
STARLINK-11374 [DTC]    
1 61581U 24187H   25262.15347704  .00001424  00000+0  16604-4 0  9992
2 61581  53.1576  62.2297 0001102  86.0233 274.0911 15.69714422 53850
STARLINK-11373 [DTC]    
1 61582U 24187J   25261.70290331 -.00000034  00000+0  45870-5 0  9991
2 61582  53.1584  64.3935 0001561 152.9546 207.1553 15.69681641 53733
STARLINK-11368 [DTC]    
1 61583U 24187K   25261.69797992  .00004577  00000+0  42662-4 0  9995
2 61583  53.1585  64.3635 0001452 142.8861 217.2257 15.69685870 53684
STARLINK-11370 [DTC]    
1 61584U 24187L   25261.69307586  .00002369  00000+0  24418-4 0  9998
2 61584  53.1587  64.3270 0001032 133.9391 226.1713 15.69697487 53734
STARLINK-11361 [DTC]    
1 61585U 24187M   25261.75184000  .00003531  00000+0  33994-4 0  9991
2 61585  53.1584  63.9803 0000457  76.0971 284.0097 15.69702538 53743
STARLINK-11360 [DTC]    
1 61586U 24187N   25261.68326579  .00002709  00000+0  27220-4 0  9994
2 61586  53.1586  64.2620 0000720  90.0222 270.0878 15.69695671 53780
