[{"OBJECT_NAME":"STARLINK-32389","OBJECT_ID":"2024-184T","EPOCH":"2025-09-19T05:14:17.009952","MEAN_MOTION":15.30195478,"ECCENTRICITY":0.00010142,"INCLINATION":53.1601,"RA_OF_ASC_NODE":90.4323,"ARG_OF_PERICENTER":92.2489,"MEAN_ANOMALY":267.8628,"EPHEMERIS_TYPE":0,"CLASSIFICATION_TYPE":"U","NORAD_CAT_ID":61549,"ELEMENT_SET_NO":999,"REV_AT_EPOCH":5225,"BSTAR":3.2892643e-5,"MEAN_MOTION_DOT":6.15e-6,"MEAN_MOTION_DDOT":0},{"OBJECT_NAME":"STARLINK-32476","OBJECT_ID":"2024-184U","EPOCH":"2025-09-19T05:32:31.081056","MEAN_MOTION":15.30189425,"ECCENTRICITY":0.00011729,"INCLINATION":53.159,"RA_OF_ASC_NODE":90.5067,"ARG_OF_PERICENTER":90.8712,"MEAN_ANOMALY":269.2423,"EPHEMERIS_TYPE":0,"CLASSIFICATION_TYPE":"U","NORAD_CAT_ID":61550,"ELEMENT_SET_NO":999,"REV_AT_EPOCH":5225,"BSTAR":4.8678303e-5,"MEAN_MOTION_DOT":1.082e-5,"MEAN_MOTION_DDOT":0},{"OBJECT_NAME":"STARLINK-32366","OBJECT_ID":"2024-184V","EPOCH":"2025-09-18T20:21:52.501248","MEAN_MOTION":15.30189802,"ECCENTRICITY":0.00010807,"INCLINATION":53.1604,"RA_OF_ASC_NODE":92.3873,"ARG_OF_PERICENTER":97.5621,"MEAN_ANOMALY":262.5503,"EPHEMERIS_TYPE":0,"CLASSIFICATION_TYPE":"U","NORAD_CAT_ID":61551,"ELEMENT_SET_NO":999,"REV_AT_EPOCH":5219,"BSTAR":1.8011825e-5,"MEAN_MOTION_DOT":1.74e-6,"MEAN_MOTION_DDOT":0},{"OBJECT_NAME":"STARLINK-11356 [DTC]","OBJECT_ID":"2024-187A","EPOCH":"2025-09-18T17:48:32.009760","MEAN_MOTION":15.69708556,"ECCENTRICITY":0.00013471,"INCLINATION":53.1584,"RA_OF_ASC_NODE":63.9201,"ARG_OF_PERICENTER":124.6118,"MEAN_ANOMALY":235.5027,"EPHEMERIS_TYPE":0,"CLASSIFICATION_TYPE":"U","NORAD_CAT_ID":61574,"ELEMENT_SET_NO":999,"REV_AT_EPOCH":5377,"BSTAR":5.5528805e-5,"MEAN_MOTION_DOT":6.143e-5,"MEAN_MOTION_DDOT":0},{"OBJECT_NAME":"STARLINK-11376 [DTC]","OBJECT_ID":"2024-187B","EPOCH":"2025-09-18T17:41:28.199616","MEAN_MOTION":15.69708768,"ECCENTRICITY":0.00010367,"INCLINATION":53.1566,"RA_OF_ASC_NODE":63.8883,"ARG_OF_PERICENTER":91.6944,"MEAN_ANOMALY":268.4192,"EPHEMERIS_TYPE":0,"CLASSIFICATION_TYPE":"U","NORAD_CAT_ID":61575,"ELEMENT_SET_NO":999,"REV_AT_EPOCH":5369,"BSTAR":5.0512325e-5,"MEAN_MOTION_DOT":5.535e-5,"MEAN_MOTION_DDOT":0},{"OBJECT_NAME":"STARLINK-11372 [DTC]","OBJECT_ID":"2024-187C","EPOCH":"2025-09-18T17:34:23.548800","MEAN_MOTION":15.69702574,"ECCENTRICITY":0.00011532,"INCLINATION":53.1591,"RA_OF_ASC_NODE":63.8493,"ARG_OF_PERICENTER":129.5673,"MEAN_ANOMALY":230.5447,"EPHEMERIS_TYPE":0,"CLASSIFICATION_TYPE":"U","NORAD_CAT_ID":61576,"ELEMENT_SET_NO":999,"REV_AT_EPOCH":5374,"BSTAR":2.2177552e-5,"MEAN_MOTION_DOT":2.098e-5,"MEAN_MOTION_DDOT":0},{"OBJECT_NAME":"STARLINK-11375 [DTC]","OBJECT_ID":"2024-187D","EPOCH":"2025-09-19T04:09:06.686784","MEAN_MOTION":15.69703687,"ECCENTRICITY":7.452e-5,"INCLINATION":53.157,"RA_OF_ASC_NODE":61.6282,"ARG_OF_PERICENTER":92.1342,"MEAN_ANOMALY":267.9761,"EPHEMERIS_TYPE":0,"CLASSIFICATION_TYPE":"U","NORAD_CAT_ID":61577,"ELEMENT_SET_NO":999,"REV_AT_EPOCH":5381,"BSTAR":1.8546124e-5,"MEAN_MOTION_DOT":1.659e-5,"MEAN_MOTION_DDOT":0},{"OBJECT_NAME":"STARLINK-11285 [DTC]","OBJECT_ID":"2024-187E","EPOCH":"2025-09-18T17:20:16.312128","MEAN_MOTION":15.6970682,"ECCENTRICITY":8.993e-5,"INCLINATION":53.1578,"RA_OF_ASC_NODE":63.7887,"ARG_OF_PERICENTER":74.651,"MEAN_ANOMALY":285.4607,"EPHEMERIS_TYPE":0,"CLASSIFICATION_TYPE":"U","NORAD_CAT_ID":61578,"ELEMENT_SET_NO":999,"REV_AT_EPOCH":5369,"BSTAR":3.5400716e-5,"MEAN_MOTION_DOT":3.702e-5,"MEAN_MOTION_DDOT":0},{"OBJECT_NAME":"STARLINK-11275 [DTC]","OBJECT_ID":"2024-187F","EPOCH":"2025-09-19T03:54:59.393952","MEAN_MOTION":15.69710617,"ECCENTRICITY":5.913e-5,"INCLINATION":53.1591,"RA_OF_ASC_NODE":61.5599,"ARG_OF_PERICENTER":73.8657,"MEAN_ANOMALY":286.2426,"EPHEMERIS_TYPE":0,"CLASSIFICATION_TYPE":"U","NORAD_CAT_ID":61579,"ELEMENT_SET_NO":999,"REV_AT_EPOCH":5376,"BSTAR":1.0297206e-5,"MEAN_MOTION_DOT":6.6e-6,"MEAN_MOTION_DDOT":0},{"OBJECT_NAME":"STARLINK-11342 [DTC]","OBJECT_ID":"2024-187G","EPOCH":"2025-09-19T03:47:55.532832","MEAN_MOTION":15.69710107,"ECCENTRICITY":9.706e-5,"INCLINATION":53.1593,"RA_OF_ASC_NODE":61.5271,"ARG_OF_PERICENTER":91.0204,"MEAN_ANOMALY":269.0925,"EPHEMERIS_TYPE":0,"CLASSIFICATION_TYPE":"U","NORAD_CAT_ID":61580,"ELEMENT_SET_NO":999,"REV_AT_EPOCH":5386,"BSTAR":2.1992513e-5,"MEAN_MOTION_DOT":2.077e-5,"MEAN_MOTION_DDOT":0},{"OBJECT_NAME":"STARLINK-11374 [DTC]","OBJECT_ID":"2024-187H","EPOCH":"2025-09-19T03:41:00.416256","MEAN_MOTION":15.69714422,"ECCENTRICITY":0.00011021,"INCLINATION":53.1576,"RA_OF_ASC_NODE":62.2297,"ARG_OF_PERICENTER":86.0233,"MEAN_ANOMALY":274.0911,"EPHEMERIS_TYPE":0,"CLASSIFICATION_TYPE":"U","NORAD_CAT_ID":61581,"ELEMENT_SET_NO":999,"REV_AT_EPOCH":5385,"BSTAR":1.660445e-5,"MEAN_MOTION_DOT":1.424e-5,"MEAN_MOTION_DDOT":0},{"OBJECT_NAME":"STARLINK-11373 [DTC]","OBJECT_ID":"2024-187J","EPOCH":"2025-09-18T16:52:10.845984","MEAN_MOTION":15.69681641,"ECCENTRICITY":0.0001561,"INCLINATION":53.1584,"RA_OF_ASC_NODE":64.3935,"ARG_OF_PERICENTER":152.9546,"MEAN_ANOMALY":207.1553,"EPHEMERIS_TYPE":0,"CLASSIFICATION_TYPE":"U","NORAD_CAT_ID":61582,"ELEMENT_SET_NO":999,"REV_AT_EPOCH":5373,"BSTAR":4.586999e-6,"MEAN_MOTION_DOT":-3.4e-7,"MEAN_MOTION_DDOT":0},{"OBJECT_NAME":"STARLINK-11368 [DTC]","OBJECT_ID":"2024-187K","EPOCH":"2025-09-18T16:45:05.465088","MEAN_MOTION":15.6968587,"ECCENTRICITY":0.00014527,"INCLINATION":53.1585,"RA_OF_ASC_NODE":64.3635,"ARG_OF_PERICENTER":142.8861,"MEAN_ANOMALY":217.2257,"EPHEMERIS_TYPE":0,"CLASSIFICATION_TYPE":"U","NORAD_CAT_ID":61583,"ELEMENT_SET_NO":999,"REV_AT_EPOCH":5368,"BSTAR":4.2661818e-5,"MEAN_MOTION_DOT":4.577e-5,"MEAN_MOTION_DDOT":0},{"OBJECT_NAME":"STARLINK-11370 [DTC]","OBJECT_ID":"2024-187L","EPOCH":"2025-09-18T16:38:01.754304","MEAN_MOTION":15.69697487,"ECCENTRICITY":0.00010328,"INCLINATION":53.1587,"RA_OF_ASC_NODE":64.327,"ARG_OF_PERICENTER":133.9391,"MEAN_ANOMALY":226.1713,"EPHEMERIS_TYPE":0,"CLASSIFICATION_TYPE":"U","NORAD_CAT_ID":61584,"ELEMENT_SET_NO":999,"REV_AT_EPOCH":5373,"BSTAR":2.4418101e-5,"MEAN_MOTION_DOT":2.369e-5,"MEAN_MOTION_DDOT":0},{"OBJECT_NAME":"STARLINK-11361 [DTC]","OBJECT_ID":"2024-187M","EPOCH":"2025-09-18T18:02:38.976000","MEAN_MOTION":15.69702538,"ECCENTRICITY":4.579e-5,"INCLINATION":53.1584,"RA_OF_ASC_NODE":63.9803,"ARG_OF_PERICENTER":76.0971,"MEAN_ANOMALY":284.0097,"EPHEMERIS_TYPE":0,"CLASSIFICATION_TYPE":"U","NORAD_CAT_ID":61585,"ELEMENT_SET_NO":999,"REV_AT_EPOCH":5374,"BSTAR":3.3993813e-5,"MEAN_MOTION_DOT":3.531e-5,"MEAN_MOTION_DDOT":0},{"OBJECT_NAME":"STARLINK-11360 [DTC]","OBJECT_ID":"2024-187N","EPOCH":"2025-09-18T16:23:54.164256","MEAN_MOTION":15.69695671,"ECCENTRICITY":7.209e-5,"INCLINATION":53.1586,"RA_OF_ASC_NODE":64.262,"ARG_OF_PERICENTER":90.0222,"MEAN_ANOMALY":270.0878,"EPHEMERIS_TYPE":0,"CLASSIFICATION_TYPE":"U","NORAD_CAT_ID":61586,"ELEMENT_SET_NO":999,"REV_AT_EPOCH":5378,"BSTAR":2.7219669e-5,"MEAN_MOTION_DOT":2.709e-5,"MEAN_MOTION_DDOT":0}]
